{
    "links": {
        "self": "http://www.neowsapp.com/rest/v1/neo/3788041?api_key=iIulBulltgU6a56xZRHN4H3l9WmuAYTsLGpBGhQ2"
    },
    "id": "3788041",
    "neo_reference_id": "3788041",
    "name": "(2017 UD6)",
    "designation": "2017 UD6",
    "nasa_jpl_url": "http://ssd.jpl.nasa.gov/sbdb.cgi?sstr=3788041",
    "absolute_magnitude_h": 24.9,
    "estimated_diameter": {
        "kilometers": {
            "estimated_diameter_min": 0.0278326768,
            "estimated_diameter_max": 0.0622357573
        },
        "meters": {
            "estimated_diameter_min": 27.8326768072,
            "estimated_diameter_max": 62.2357573367
        },
        "miles": {
            "estimated_diameter_min": 0.0172944182,
            "estimated_diameter_max": 0.0386714948
        },
        "feet": {
            "estimated_diameter_min": 91.3145593761,
            "estimated_diameter_max": 204.1855621004
        }
    },
    "is_potentially_hazardous_asteroid": false,
    "close_approach_data": [
        {
            "close_approach_date": "2017-10-17",
            "close_approach_date_full": "2017-Oct-17 01:21",
            "epoch_date_close_approach": 1508203260000,
            "relative_velocity": {
                "kilometers_per_second": "24.8261893449",
                "kilometers_per_hour": "89374.2816415334",
                "miles_per_hour": "55533.7029455406"
            },
            "miss_distance": {
                "astronomical": "0.0703373888",
                "lunar": "27.3612442432",
                "kilometers": "10522323.545841856",
                "miles": "6538268.6678393728"
            },
            "orbiting_body": "Earth"
        }
    ],
    "orbital_data": {
        "orbit_id": "2",
        "orbit_determination_date": "2019-07-19 05:26:21",
        "first_observation_date": "2017-10-22",
        "last_observation_date": "2017-10-26",
        "data_arc_in_days": 4,
        "observations_used": 27,
        "orbit_uncertainty": "9",
        "minimum_orbit_intersection": ".0508366",
        "jupiter_tisserand_invariant": "3.976",
        "epoch_osculation": "2458050.5",
        "eccentricity": ".6078611314617985",
        "semi_major_axis": "1.60137759384644",
        "inclination": "34.45647440552466",
        "ascending_node_longitude": "208.7248219965405",
        "orbital_period": "740.1829012232043",
        "perihelion_distance": ".6279623977533704",
        "perihelion_argument": "82.31201288789569",
        "aphelion_distance": "2.574792789939509",
        "perihelion_time": "2457989.009296580480",
        "mean_anomaly": "29.90700432885551",
        "mean_motion": ".486366274342564",
        "equinox": "J2000",
        "orbit_class": {
            "orbit_class_type": "APO",
            "orbit_class_description": "Near-Earth asteroid orbits which cross the Earth’s orbit similar to that of 1862 Apollo",
            "orbit_class_range": "a (semi-major axis) > 1.0 AU; q (perihelion) < 1.017 AU"
        }
    },
    "is_sentry_object": false
}